[{"OBJECT_NAME":"STARLINK-2380","OBJECT_ID":"2021-018N","EPOCH":"2026-03-10T00:00:02.999808","MEAN_MOTION":15.13878952,"ECCENTRICITY":0.00017365,"INCLINATION":53.0862,"RA_OF_ASC_NODE":230.0961,"ARG_OF_PERICENTER":70.6216,"MEAN_ANOMALY":14.3267,"EPHEMERIS_TYPE":0,"CLASSIFICATION_TYPE":"U","NORAD_CAT_ID":47799,"ELEMENT_SET_NO":999,"REV_AT_EPOCH":569,"BSTAR":0.058689592,"MEAN_MOTION_DOT":0.0117011,"MEAN_MOTION_DDOT":0},{"OBJECT_NAME":"RESURS-P 5","OBJECT_ID":"2024-250A","EPOCH":"2026-03-09T23:31:56.908992","MEAN_MOTION":15.32839945,"ECCENTRICITY":0.00026027,"INCLINATION":97.276,"RA_OF_ASC_NODE":355.9792,"ARG_OF_PERICENTER":63.1234,"MEAN_ANOMALY":297.0274,"EPHEMERIS_TYPE":0,"CLASSIFICATION_TYPE":"U","NORAD_CAT_ID":62430,"ELEMENT_SET_NO":999,"REV_AT_EPOCH":6735,"BSTAR":0.00015600887,"MEAN_MOTION_DOT":4.871e-5,"MEAN_MOTION_DDOT":0}]
